STARLINK-2743           
1 48682U 21044AW  26068.42942889 -.00002116  00000+0 -59354-4 0  9998
2 48682  53.1601  66.1547 0000994 118.5506 241.5595 15.30200308264468
ION SCV-004             
1 50993U 22002K   26068.68892644  .00006538  00000+0  23198-3 0  9998
2 50993  97.2961 128.2294 0007216   1.6783 358.4480 15.29369331230088
